{
  "type": "FeatureCollection",
  "features": [
    {
      "type": "Feature",
      "properties": {
        "norad_id": 38867,
        "name": "INTELSAT 23 (IS-23)",
        "group": "intelsat",
        "lat": 0.014356044768424057,
        "lon": -173.23540777709272,
        "alt_km": 35790.490333683825,
        "timestamp": "2025-12-24T09:46:30.663370+00:00",
        "meta_object_name": "INTELSAT 23 (IS-23)",
        "meta_object_id": "2012-057A",
        "meta_epoch": "2025-12-23T23:09:09.356832",
        "meta_mean_motion": 1.00264699,
        "meta_eccentricity": 0.0001104,
        "meta_inclination": 0.0163,
        "meta_ra_of_asc_node": 41.4093,
        "meta_arg_of_pericenter": 266.1535,
        "meta_mean_anomaly": 79.4555,
        "meta_ephemeris_type": 0,
        "meta_classification_type": "U",
        "meta_norad_cat_id": 38867,
        "meta_element_set_no": 999,
        "meta_rev_at_epoch": 4819,
        "meta_bstar": 0,
        "meta_mean_motion_dot": -2.64e-06,
        "meta_mean_motion_ddot": 0,
        "tle_line1": "1 38867U 12057A   25357.96469163 -.00000264  00000+0  00000+0 0  9994",
        "tle_line2": "2 38867   0.0163  41.4093 0001104 266.1535  79.4555  1.00264699 48193"
      },
      "geometry": {
        "type": "Point",
        "coordinates": [
          -173.23540777709272,
          0.014356044768424057
        ]
      }
    },
    {
      "type": "Feature",
      "properties": {
        "norad_id": 39360,
        "name": "FM-6",
        "group": "intelsat",
        "lat": 0.028212086423798525,
        "lon": 123.60046278843822,
        "alt_km": 35779.33431179594,
        "timestamp": "2025-12-24T09:46:30.663381+00:00",
        "meta_object_name": "FM-6",
        "meta_object_id": "2013-058A",
        "meta_epoch": "2025-12-23T11:38:38.460768",
        "meta_mean_motion": 1.00269364,
        "meta_eccentricity": 0.00029708,
        "meta_inclination": 0.0125,
        "meta_ra_of_asc_node": 63.3346,
        "meta_arg_of_pericenter": 113.984,
        "meta_mean_anomaly": 333.4468,
        "meta_ephemeris_type": 0,
        "meta_classification_type": "U",
        "meta_norad_cat_id": 39360,
        "meta_element_set_no": 999,
        "meta_rev_at_epoch": 4431,
        "meta_bstar": 0,
        "meta_mean_motion_dot": 4e-08,
        "meta_mean_motion_ddot": 0,
        "tle_line1": "1 39360U 13058A   25357.48516737  .00000004  00000+0  00000+0 0  9993",
        "tle_line2": "2 39360   0.0125  63.3346 0002970 113.9840 333.4468  1.00269364 44314"
      },
      "geometry": {
        "type": "Point",
        "coordinates": [
          123.60046278843822,
          0.028212086423798525
        ]
      }
    },
    {
      "type": "Feature",
      "properties": {
        "norad_id": 40271,
        "name": "INTELSAT 30 (IS-30)",
        "group": "intelsat",
        "lat": 0.02823924341250046,
        "lon": 144.7608933388425,
        "alt_km": 35782.75374764062,
        "timestamp": "2025-12-24T09:46:30.663393+00:00",
        "meta_object_name": "INTELSAT 30 (IS-30)",
        "meta_object_id": "2014-062A",
        "meta_epoch": "2025-12-23T21:14:27.843072",
        "meta_mean_motion": 1.0026976,
        "meta_eccentricity": 0.0001578,
        "meta_inclination": 0.0125,
        "meta_ra_of_asc_node": 23.0608,
        "meta_arg_of_pericenter": 67.4771,
        "meta_mean_anomaly": 225.692,
        "meta_ephemeris_type": 0,
        "meta_classification_type": "U",
        "meta_norad_cat_id": 40271,
        "meta_element_set_no": 999,
        "meta_rev_at_epoch": 503,
        "meta_bstar": 0,
        "meta_mean_motion_dot": -1.3e-06,
        "meta_mean_motion_ddot": 0,
        "tle_line1": "1 40271U 14062A   25357.88504448 -.00000130  00000+0  00000+0 0  9993",
        "tle_line2": "2 40271   0.0125  23.0608 0001578  67.4771 225.6920  1.00269760  5031"
      },
      "geometry": {
        "type": "Point",
        "coordinates": [
          144.7608933388425,
          0.02823924341250046
        ]
      }
    },
    {
      "type": "Feature",
      "properties": {
        "norad_id": 40333,
        "name": "DIRECTV 14",
        "group": "intelsat",
        "lat": 0.032762039552634695,
        "lon": 140.57983204840454,
        "alt_km": 35785.07205886371,
        "timestamp": "2025-12-24T09:46:30.663404+00:00",
        "meta_object_name": "DIRECTV 14",
        "meta_object_id": "2014-078B",
        "meta_epoch": "2025-12-23T11:18:37.238976",
        "meta_mean_motion": 1.00271389,
        "meta_eccentricity": 3.845e-05,
        "meta_inclination": 0.0218,
        "meta_ra_of_asc_node": 6.297,
        "meta_arg_of_pericenter": 179.2975,
        "meta_mean_anomaly": 337.1009,
        "meta_ephemeris_type": 0,
        "meta_classification_type": "U",
        "meta_norad_cat_id": 40333,
        "meta_element_set_no": 999,
        "meta_rev_at_epoch": 4028,
        "meta_bstar": 0,
        "meta_mean_motion_dot": 0,
        "meta_mean_motion_ddot": 0,
        "tle_line1": "1 40333U 14078B   25357.47126434  .00000000  00000+0  00000+0 0  9994",
        "tle_line2": "2 40333   0.0218   6.2970 0000384 179.2975 337.1009  1.00271389 40283"
      },
      "geometry": {
        "type": "Point",
        "coordinates": [
          140.57983204840454,
          0.032762039552634695
        ]
      }
    },
    {
      "type": "Feature",
      "properties": {
        "norad_id": 40663,
        "name": "DIRECTV 15",
        "group": "intelsat",
        "lat": 0.03798086671805954,
        "lon": 136.91012938236398,
        "alt_km": 35785.18587715616,
        "timestamp": "2025-12-24T09:46:30.663416+00:00",
        "meta_object_name": "DIRECTV 15",
        "meta_object_id": "2015-026A",
        "meta_epoch": "2025-12-23T16:04:04.915776",
        "meta_mean_motion": 1.00267894,
        "meta_eccentricity": 5.609e-05,
        "meta_inclination": 0.0212,
        "meta_ra_of_asc_node": 18.8544,
        "meta_arg_of_pericenter": 150.3599,
        "meta_mean_anomaly": 61.3814,
        "meta_ephemeris_type": 0,
        "meta_classification_type": "U",
        "meta_norad_cat_id": 40663,
        "meta_element_set_no": 999,
        "meta_rev_at_epoch": 3870,
        "meta_bstar": 0,
        "meta_mean_motion_dot": 0,
        "meta_mean_motion_ddot": 0,
        "tle_line1": "1 40663U 15026A   25357.66950134  .00000000  00000+0  00000+0 0  9997",
        "tle_line2": "2 40663   0.0212  18.8544 0000560 150.3599  61.3814  1.00267894 38707"
      },
      "geometry": {
        "type": "Point",
        "coordinates": [
          136.91012938236398,
          0.03798086671805954
        ]
      }
    },
    {
      "type": "Feature",
      "properties": {
        "norad_id": 40664,
        "name": "SKY MEXICO-1",
        "group": "intelsat",
        "lat": 0.010371057999073403,
        "lon": 161.01559857229117,
        "alt_km": 35793.03213734496,
        "timestamp": "2025-12-24T09:46:30.663427+00:00",
        "meta_object_name": "SKY MEXICO-1",
        "meta_object_id": "2015-026B",
        "meta_epoch": "2025-12-24T03:37:32.085984",
        "meta_mean_motion": 1.00270423,
        "meta_eccentricity": 0.0002479,
        "meta_inclination": 0.0113,
        "meta_ra_of_asc_node": 351.7636,
        "meta_arg_of_pericenter": 297.9698,
        "meta_mean_anomaly": 138.8157,
        "meta_ephemeris_type": 0,
        "meta_classification_type": "U",
        "meta_norad_cat_id": 40664,
        "meta_element_set_no": 999,
        "meta_rev_at_epoch": 3869,
        "meta_bstar": 0,
        "meta_mean_motion_dot": -2.13e-06,
        "meta_mean_motion_ddot": 0,
        "tle_line1": "1 40664U 15026B   25358.15106581 -.00000213  00000+0  00000+0 0  9999",
        "tle_line2": "2 40664   0.0113 351.7636 0002479 297.9698 138.8157  1.00270423 38698"
      },
      "geometry": {
        "type": "Point",
        "coordinates": [
          161.01559857229117,
          0.010371057999073403
        ]
      }
    },
    {
      "type": "Feature",
      "properties": {
        "norad_id": 40874,
        "name": "INTELSAT 34 (IS-34)",
        "group": "intelsat",
        "lat": -0.009859463678065847,
        "lon": -175.68720868775642,
        "alt_km": 35783.79778506909,
        "timestamp": "2025-12-24T09:46:30.663439+00:00",
        "meta_object_name": "INTELSAT 34 (IS-34)",
        "meta_object_id": "2015-039A",
        "meta_epoch": "2025-12-24T00:41:01.834080",
        "meta_mean_motion": 1.0027036,
        "meta_eccentricity": 7.08e-05,
        "meta_inclination": 0.0133,
        "meta_ra_of_asc_node": 315.3978,
        "meta_arg_of_pericenter": 205.631,
        "meta_mean_anomaly": 246.5458,
        "meta_ephemeris_type": 0,
        "meta_classification_type": "U",
        "meta_norad_cat_id": 40874,
        "meta_element_set_no": 999,
        "meta_rev_at_epoch": 3786,
        "meta_bstar": 0,
        "meta_mean_motion_dot": -2.64e-06,
        "meta_mean_motion_ddot": 0,
        "tle_line1": "1 40874U 15039A   25358.02849345 -.00000264  00000+0  00000+0 0  9990",
        "tle_line2": "2 40874   0.0133 315.3978 0000708 205.6310 246.5458  1.00270360 37867"
      },
      "geometry": {
        "type": "Point",
        "coordinates": [
          -175.68720868775642,
          -0.009859463678065847
        ]
      }
    }
  ]
}